{"fetched_at":"2026-07-17T06:38:18.454Z","source":"https://celestrak.org/NORAD/elements/gp.php?NAME=HULIANWANG&FORMAT=JSON","constellation":"guowang","records":[{"OBJECT_NAME":"HULIANWANG DIGUI-124","OBJECT_ID":"2025-295F","EPOCH":"2026-07-16T15:50:55.465152","CLASSIFICATION_TYPE":"U","MEAN_MOTION":13.29329237,"ECCENTRICITY":0.0001109,"INCLINATION":49.9998,"RA_OF_ASC_NODE":279.6358,"ARG_OF_PERICENTER":196.7946,"MEAN_ANOMALY":163.289,"EPHEMERIS_TYPE":0,"NORAD_CAT_ID":67064,"ELEMENT_SET_NO":999,"REV_AT_EPOCH":2942,"BSTAR":0.000097623,"MEAN_MOTION_DOT":-7.9e-7,"MEAN_MOTION_DDOT":0},{"OBJECT_NAME":"HULIANWANG DIGUI-125","OBJECT_ID":"2025-295G","EPOCH":"2026-07-16T15:38:47.984928","CLASSIFICATION_TYPE":"U","MEAN_MOTION":13.29329957,"ECCENTRICITY":0.0001083,"INCLINATION":49.9991,"RA_OF_ASC_NODE":279.5757,"ARG_OF_PERICENTER":195.2614,"MEAN_ANOMALY":164.8226,"EPHEMERIS_TYPE":0,"NORAD_CAT_ID":67065,"ELEMENT_SET_NO":999,"REV_AT_EPOCH":2942,"BSTAR":0.00010844,"MEAN_MOTION_DOT":-7.4e-7,"MEAN_MOTION_DDOT":0},{"OBJECT_NAME":"HULIANWANG DIGUI-126","OBJECT_ID":"2025-295H","EPOCH":"2026-07-16T13:38:28.075200","CLASSIFICATION_TYPE":"U","MEAN_MOTION":13.29322788,"ECCENTRICITY":0.0001131,"INCLINATION":49.9993,"RA_OF_ASC_NODE":279.8059,"ARG_OF_PERICENTER":191.6514,"MEAN_ANOMALY":168.4332,"EPHEMERIS_TYPE":0,"NORAD_CAT_ID":67066,"ELEMENT_SET_NO":999,"REV_AT_EPOCH":2941,"BSTAR":0.000079601,"MEAN_MOTION_DOT":-8.7e-7,"MEAN_MOTION_DDOT":0},{"OBJECT_NAME":"HULIANWANG DIGUI-127","OBJECT_ID":"2025-295J","EPOCH":"2026-07-16T11:38:06.384768","CLASSIFICATION_TYPE":"U","MEAN_MOTION":13.29331046,"ECCENTRICITY":0.0001133,"INCLINATION":50.0008,"RA_OF_ASC_NODE":280.0662,"ARG_OF_PERICENTER":194.1648,"MEAN_ANOMALY":165.9192,"EPHEMERIS_TYPE":0,"NORAD_CAT_ID":67067,"ELEMENT_SET_NO":999,"REV_AT_EPOCH":2940,"BSTAR":0.000091256,"MEAN_MOTION_DOT":-8.2e-7,"MEAN_MOTION_DDOT":0},{"OBJECT_NAME":"HULIANWANG DIGUI-128","OBJECT_ID":"2025-311A","EPOCH":"2026-07-16T15:46:26.896800","CLASSIFICATION_TYPE":"U","MEAN_MOTION":13.29323798,"ECCENTRICITY":0.0000931,"INCLINATION":50.0099,"RA_OF_ASC_NODE":9.8635,"ARG_OF_PERICENTER":80.3769,"MEAN_ANOMALY":279.7209,"EPHEMERIS_TYPE":0,"NORAD_CAT_ID":67236,"ELEMENT_SET_NO":999,"REV_AT_EPOCH":2726,"BSTAR":0.0000092846,"MEAN_MOTION_DOT":-0.0000012,"MEAN_MOTION_DDOT":0},{"OBJECT_NAME":"HULIANWANG DIGUI-129","OBJECT_ID":"2025-311B","EPOCH":"2026-07-16T19:34:53.347008","CLASSIFICATION_TYPE":"U","MEAN_MOTION":13.29324994,"ECCENTRICITY":0.0000872,"INCLINATION":50.0089,"RA_OF_ASC_NODE":9.3489,"ARG_OF_PERICENTER":82.1325,"MEAN_ANOMALY":277.9646,"EPHEMERIS_TYPE":0,"NORAD_CAT_ID":67237,"ELEMENT_SET_NO":999,"REV_AT_EPOCH":2728,"BSTAR":0.000013396,"MEAN_MOTION_DOT":-0.00000118,"MEAN_MOTION_DDOT":0},{"OBJECT_NAME":"HULIANWANG DIGUI-130","OBJECT_ID":"2025-311C","EPOCH":"2026-07-16T15:22:22.415808","CLASSIFICATION_TYPE":"U","MEAN_MOTION":13.29323662,"ECCENTRICITY":0.0000954,"INCLINATION":50.0068,"RA_OF_ASC_NODE":10.3794,"ARG_OF_PERICENTER":80.1527,"MEAN_ANOMALY":279.9453,"EPHEMERIS_TYPE":0,"NORAD_CAT_ID":67238,"ELEMENT_SET_NO":999,"REV_AT_EPOCH":2725,"BSTAR":0.000024165,"MEAN_MOTION_DOT":-0.00000113,"MEAN_MOTION_DDOT":0},{"OBJECT_NAME":"HULIANWANG DIGUI-131","OBJECT_ID":"2025-311D","EPOCH":"2026-07-16T15:34:25.252896","CLASSIFICATION_TYPE":"U","MEAN_MOTION":13.29323422,"ECCENTRICITY":0.0000972,"INCLINATION":50.0065,"RA_OF_ASC_NODE":10.4151,"ARG_OF_PERICENTER":79.2036,"MEAN_ANOMALY":280.8945,"EPHEMERIS_TYPE":0,"NORAD_CAT_ID":67239,"ELEMENT_SET_NO":999,"REV_AT_EPOCH":2725,"BSTAR":7.646e-7,"MEAN_MOTION_DOT":-0.00000124,"MEAN_MOTION_DDOT":0},{"OBJECT_NAME":"HULIANWANG DIGUI-132","OBJECT_ID":"2025-311E","EPOCH":"2026-07-16T20:23:03.672384","CLASSIFICATION_TYPE":"U","MEAN_MOTION":13.29324205,"ECCENTRICITY":0.0000927,"INCLINATION":50.0077,"RA_OF_ASC_NODE":9.4977,"ARG_OF_PERICENTER":77.198,"MEAN_ANOMALY":282.8996,"EPHEMERIS_TYPE":0,"NORAD_CAT_ID":67240,"ELEMENT_SET_NO":999,"REV_AT_EPOCH":2728,"BSTAR":0.000034805,"MEAN_MOTION_DOT":-0.00000108,"MEAN_MOTION_DDOT":0},{"OBJECT_NAME":"HULIANWANG DIGUI-133","OBJECT_ID":"2025-311F","EPOCH":"2026-07-16T10:57:44.949600","CLASSIFICATION_TYPE":"U","MEAN_MOTION":13.29324135,"ECCENTRICITY":0.0000912,"INCLINATION":50.0122,"RA_OF_ASC_NODE":10.834,"ARG_OF_PERICENTER":77.6526,"MEAN_ANOMALY":282.4448,"EPHEMERIS_TYPE":0,"NORAD_CAT_ID":67241,"ELEMENT_SET_NO":999,"REV_AT_EPOCH":2723,"BSTAR":0.000033099,"MEAN_MOTION_DOT":-0.00000109,"MEAN_MOTION_DDOT":0},{"OBJECT_NAME":"HULIANWANG DIGUI-134","OBJECT_ID":"2025-311G","EPOCH":"2026-07-16T11:09:43.947936","CLASSIFICATION_TYPE":"U","MEAN_MOTION":13.29323865,"ECCENTRICITY":0.0000941,"INCLINATION":50.005,"RA_OF_ASC_NODE":10.7608,"ARG_OF_PERICENTER":76.1604,"MEAN_ANOMALY":283.9373,"EPHEMERIS_TYPE":0,"NORAD_CAT_ID":67242,"ELEMENT_SET_NO":999,"REV_AT_EPOCH":2723,"BSTAR":0.00003113,"MEAN_MOTION_DOT":-0.0000011,"MEAN_MOTION_DDOT":0},{"OBJECT_NAME":"HULIANWANG DIGUI-135","OBJECT_ID":"2025-311H","EPOCH":"2026-07-16T20:35:05.343072","CLASSIFICATION_TYPE":"U","MEAN_MOTION":13.29323668,"ECCENTRICITY":0.000094,"INCLINATION":50.0037,"RA_OF_ASC_NODE":9.4748,"ARG_OF_PERICENTER":80.673,"MEAN_ANOMALY":279.4248,"EPHEMERIS_TYPE":0,"NORAD_CAT_ID":67243,"ELEMENT_SET_NO":999,"REV_AT_EPOCH":2728,"BSTAR":0.000019365,"MEAN_MOTION_DOT":-0.00000115,"MEAN_MOTION_DDOT":0},{"OBJECT_NAME":"HULIANWANG DIGUI-136","OBJECT_ID":"2025-311J","EPOCH":"2026-07-16T16:10:26.001984","CLASSIFICATION_TYPE":"U","MEAN_MOTION":13.29324603,"ECCENTRICITY":0.0000869,"INCLINATION":50.0109,"RA_OF_ASC_NODE":9.9619,"ARG_OF_PERICENTER":80.8025,"MEAN_ANOMALY":279.2946,"EPHEMERIS_TYPE":0,"NORAD_CAT_ID":67244,"ELEMENT_SET_NO":999,"REV_AT_EPOCH":2726,"BSTAR":0.000029023,"MEAN_MOTION_DOT":-0.00000111,"MEAN_MOTION_DDOT":0},{"OBJECT_NAME":"HULIANWANG DIGUI-137","OBJECT_ID":"2026-007A","EPOCH":"2026-07-16T18:38:16.258848","CLASSIFICATION_TYPE":"U","MEAN_MOTION":13.29326983,"ECCENTRICITY":0.0000898,"INCLINATION":50.0098,"RA_OF_ASC_NODE":339.736,"ARG_OF_PERICENTER":119.5058,"MEAN_ANOMALY":240.5904,"EPHEMERIS_TYPE":0,"NORAD_CAT_ID":67435,"ELEMENT_SET_NO":999,"REV_AT_EPOCH":2472,"BSTAR":0.000028067,"MEAN_MOTION_DOT":-0.00000111,"MEAN_MOTION_DDOT":0},{"OBJECT_NAME":"HULIANWANG DIGUI-138","OBJECT_ID":"2026-007B","EPOCH":"2026-07-16T15:25:51.595392","CLASSIFICATION_TYPE":"U","MEAN_MOTION":13.29325338,"ECCENTRICITY":0.0000887,"INCLINATION":50.0077,"RA_OF_ASC_NODE":340.3306,"ARG_OF_PERICENTER":120.637,"MEAN_ANOMALY":239.4589,"EPHEMERIS_TYPE":0,"NORAD_CAT_ID":67436,"ELEMENT_SET_NO":999,"REV_AT_EPOCH":2470,"BSTAR":0.0000089041,"MEAN_MOTION_DOT":-0.0000012,"MEAN_MOTION_DDOT":0},{"OBJECT_NAME":"HULIANWANG DIGUI-139","OBJECT_ID":"2026-007C","EPOCH":"2026-07-16T13:25:19.354656","CLASSIFICATION_TYPE":"U","MEAN_MOTION":13.29328321,"ECCENTRICITY":0.000088,"INCLINATION":50.0049,"RA_OF_ASC_NODE":340.5118,"ARG_OF_PERICENTER":107.7737,"MEAN_ANOMALY":252.3231,"EPHEMERIS_TYPE":0,"NORAD_CAT_ID":67437,"ELEMENT_SET_NO":999,"REV_AT_EPOCH":2469,"BSTAR":0.00001724,"MEAN_MOTION_DOT":-0.00000116,"MEAN_MOTION_DDOT":0}]}
