HULIANWANG DIGUI-124    
1 67064U 25295F   26197.66036418 -.00000079  00000+0  97623-4 0  9992
2 67064  49.9998 279.6358 0001109 196.7946 163.2890 13.29329237 29423
HULIANWANG DIGUI-125    
1 67065U 25295G   26197.65194427 -.00000074  00000+0  10844-3 0  9991
2 67065  49.9991 279.5757 0001083 195.2614 164.8226 13.29329957 29425
HULIANWANG DIGUI-126    
1 67066U 25295H   26197.56838050 -.00000087  00000+0  79601-4 0  9990
2 67066  49.9993 279.8059 0001131 191.6514 168.4332 13.29322788 29411
HULIANWANG DIGUI-127    
1 67067U 25295J   26197.48479612 -.00000082  00000+0  91256-4 0  9992
2 67067  50.0008 280.0662 0001133 194.1648 165.9192 13.29331046 29406
HULIANWANG DIGUI-128    
1 67236U 25311A   26197.65725575 -.00000120  00000+0  92846-5 0  9990
2 67236  50.0099   9.8635 0000931  80.3769 279.7209 13.29323798 27266
HULIANWANG DIGUI-129    
1 67237U 25311B   26197.81589522 -.00000118  00000+0  13396-4 0  9998
2 67237  50.0089   9.3489 0000872  82.1325 277.9646 13.29324994 27286
HULIANWANG DIGUI-130    
1 67238U 25311C   26197.64053722 -.00000113  00000+0  24165-4 0  9999
2 67238  50.0068  10.3794 0000954  80.1527 279.9453 13.29323662 27254
HULIANWANG DIGUI-131    
1 67239U 25311D   26197.64890339 -.00000124  00000+0  76460-6 0  9992
2 67239  50.0065  10.4151 0000972  79.2036 280.8945 13.29323422 27255
HULIANWANG DIGUI-132    
1 67240U 25311E   26197.84934806 -.00000108  00000+0  34805-4 0  9991
2 67240  50.0077   9.4977 0000927  77.1980 282.8996 13.29324205 27280
HULIANWANG DIGUI-133    
1 67241U 25311F   26197.45677025 -.00000109  00000+0  33099-4 0  9991
2 67241  50.0122  10.8340 0000912  77.6526 282.4448 13.29324135 27232
HULIANWANG DIGUI-134    
1 67242U 25311G   26197.46509199 -.00000110  00000+0  31130-4 0  9995
2 67242  50.0050  10.7608 0000941  76.1604 283.9373 13.29323865 27234
HULIANWANG DIGUI-135    
1 67243U 25311H   26197.85770073 -.00000115  00000+0  19365-4 0  9991
2 67243  50.0037   9.4748 0000940  80.6730 279.4248 13.29323668 27286
HULIANWANG DIGUI-136    
1 67244U 25311J   26197.67391206 -.00000111  00000+0  29023-4 0  9997
2 67244  50.0109   9.9619 0000869  80.8025 279.2946 13.29324603 27269
HULIANWANG DIGUI-137    
1 67435U 26007A   26197.77657707 -.00000111  00000+0  28067-4 0  9991
2 67435  50.0098 339.7360 0000898 119.5058 240.5904 13.29326983 24729
HULIANWANG DIGUI-138    
1 67436U 26007B   26197.64295828 -.00000120  00000+0  89041-5 0  9990
2 67436  50.0077 340.3306 0000887 120.6370 239.4589 13.29325338 24700
HULIANWANG DIGUI-139    
1 67437U 26007C   26197.55925179 -.00000116  00000+0  17240-4 0  9996
2 67437  50.0049 340.5118 0000880 107.7737 252.3231 13.29328321 24690
